HULIANWANG DIGUI-124    
1 67064U 25295F   26200.21645820 -.00000095  00000+0  63626-4 0  9995
2 67064  49.9994 270.4676 0001124 206.2151 153.8664 13.29329458 29769
HULIANWANG DIGUI-125    
1 67065U 25295G   26200.20803693 -.00000097  00000+0  58094-4 0  9994
2 67065  49.9985 270.4070 0001107 205.7586 154.3231 13.29330062 29764
HULIANWANG DIGUI-126    
1 67066U 25295H   26200.19966641 -.00000098  00000+0  55543-4 0  9993
2 67066  49.9988 270.3680 0001145 202.2696 157.8127 13.29322939 29766
HULIANWANG DIGUI-127    
1 67067U 25295J   26200.19124537 -.00000098  00000+0  57018-4 0  9993
2 67067  50.0004 270.3591 0001143 206.1691 153.9124 13.29331087 29764
HULIANWANG DIGUI-128    
1 67236U 25311A   26199.83746435 -.00000123  00000+0  24199-5 0  9999
2 67236  50.0101   2.0451 0000923  86.9009 273.1969 13.29323771 27555
HULIANWANG DIGUI-129    
1 67237U 25311B   26199.69538347 -.00000128  00000+0 -85694-5 0  9998
2 67237  50.0089   2.6085 0000863  88.9921 271.1051 13.29324968 27535
HULIANWANG DIGUI-130    
1 67238U 25311C   26200.12146417 -.00000104  00000+0  43154-4 0  9990
2 67238  50.0069   1.4818 0000958  86.7691 273.3291 13.29323715 27584
HULIANWANG DIGUI-131    
1 67239U 25311D   26200.12983056 -.00000116  00000+0  17655-4 0  9999
2 67239  50.0067   1.5176 0000965  87.8052 272.2931 13.29323481 27581
HULIANWANG DIGUI-132    
1 67240U 25311E   26199.87919656 -.00000110  00000+0  30392-4 0  9992
2 67240  50.0076   2.2176 0000916  85.1546 274.9431 13.29324259 27551
HULIANWANG DIGUI-133    
1 67241U 25311F   26199.86251705 -.00000107  00000+0  36858-4 0  9995
2 67241  50.0122   2.2069 0000897  87.2964 272.8011 13.29324304 27552
HULIANWANG DIGUI-134    
1 67242U 25311G   26199.87083841 -.00000101  00000+0  48882-4 0  9995
2 67242  50.0050   2.1324 0000916  86.5707 273.5270 13.29324066 27555
HULIANWANG DIGUI-135    
1 67243U 25311H   26200.18826802 -.00000113  00000+0  24694-4 0  9993
2 67243  50.0035   1.1159 0000924  86.0840 274.0138 13.29323742 27599
HULIANWANG DIGUI-136    
1 67244U 25311J   26200.15483759 -.00000120  00000+0  77134-5 0  9997
2 67244  50.0111   1.0649 0000861  89.9870 270.1101 13.29324637 27594
HULIANWANG DIGUI-137    
1 67435U 26007A   26199.73124209 -.00000100  00000+0  51136-4 0  9996
2 67435  50.0099 332.7262 0000908 124.5325 235.5633 13.29327050 24986
HULIANWANG DIGUI-138    
1 67436U 26007B   26199.74798439 -.00000106  00000+0  39404-4 0  9990
2 67436  50.0078 332.7817 0000885 126.4159 233.6795 13.29325395 24988
HULIANWANG DIGUI-139    
1 67437U 26007C   26200.04016970 -.00000106  00000+0  37925-4 0  9996
2 67437  50.0048 331.6139 0000867 113.5254 246.5710 13.29328342 25025
