{"fetched_at":"2026-07-19T17:31:36.159Z","source":"https://celestrak.org/NORAD/elements/gp.php?NAME=HULIANWANG&FORMAT=JSON","constellation":"guowang","records":[{"OBJECT_NAME":"HULIANWANG DIGUI-124","OBJECT_ID":"2025-295F","EPOCH":"2026-07-19T05:11:41.988480","CLASSIFICATION_TYPE":"U","MEAN_MOTION":13.29329458,"ECCENTRICITY":0.00011249,"INCLINATION":49.9994,"RA_OF_ASC_NODE":270.4676,"ARG_OF_PERICENTER":206.2151,"MEAN_ANOMALY":153.8664,"EPHEMERIS_TYPE":0,"NORAD_CAT_ID":67064,"ELEMENT_SET_NO":999,"REV_AT_EPOCH":2976,"BSTAR":0.000063625974,"MEAN_MOTION_DOT":-9.5e-7,"MEAN_MOTION_DDOT":0},{"OBJECT_NAME":"HULIANWANG DIGUI-125","OBJECT_ID":"2025-295G","EPOCH":"2026-07-19T04:59:34.390752","CLASSIFICATION_TYPE":"U","MEAN_MOTION":13.29330062,"ECCENTRICITY":0.0001107,"INCLINATION":49.9985,"RA_OF_ASC_NODE":270.407,"ARG_OF_PERICENTER":205.7586,"MEAN_ANOMALY":154.3231,"EPHEMERIS_TYPE":0,"NORAD_CAT_ID":67065,"ELEMENT_SET_NO":999,"REV_AT_EPOCH":2976,"BSTAR":0.000058093619,"MEAN_MOTION_DOT":-9.7e-7,"MEAN_MOTION_DDOT":0},{"OBJECT_NAME":"HULIANWANG DIGUI-126","OBJECT_ID":"2025-295H","EPOCH":"2026-07-19T04:47:31.177824","CLASSIFICATION_TYPE":"U","MEAN_MOTION":13.29322939,"ECCENTRICITY":0.00011456,"INCLINATION":49.9988,"RA_OF_ASC_NODE":270.368,"ARG_OF_PERICENTER":202.2696,"MEAN_ANOMALY":157.8127,"EPHEMERIS_TYPE":0,"NORAD_CAT_ID":67066,"ELEMENT_SET_NO":999,"REV_AT_EPOCH":2976,"BSTAR":0.000055543177,"MEAN_MOTION_DOT":-9.8e-7,"MEAN_MOTION_DDOT":0},{"OBJECT_NAME":"HULIANWANG DIGUI-127","OBJECT_ID":"2025-295J","EPOCH":"2026-07-19T04:35:23.599968","CLASSIFICATION_TYPE":"U","MEAN_MOTION":13.29331087,"ECCENTRICITY":0.0001143,"INCLINATION":50.0004,"RA_OF_ASC_NODE":270.3591,"ARG_OF_PERICENTER":206.1691,"MEAN_ANOMALY":153.9124,"EPHEMERIS_TYPE":0,"NORAD_CAT_ID":67067,"ELEMENT_SET_NO":999,"REV_AT_EPOCH":2976,"BSTAR":0.000057018484,"MEAN_MOTION_DOT":-9.8e-7,"MEAN_MOTION_DDOT":0},{"OBJECT_NAME":"HULIANWANG DIGUI-128","OBJECT_ID":"2025-311A","EPOCH":"2026-07-18T20:05:56.919840","CLASSIFICATION_TYPE":"U","MEAN_MOTION":13.29323771,"ECCENTRICITY":0.00009233,"INCLINATION":50.0101,"RA_OF_ASC_NODE":2.0451,"ARG_OF_PERICENTER":86.9009,"MEAN_ANOMALY":273.1969,"EPHEMERIS_TYPE":0,"NORAD_CAT_ID":67236,"ELEMENT_SET_NO":999,"REV_AT_EPOCH":2755,"BSTAR":0.000002419936,"MEAN_MOTION_DOT":-0.00000123,"MEAN_MOTION_DDOT":0},{"OBJECT_NAME":"HULIANWANG DIGUI-129","OBJECT_ID":"2025-311B","EPOCH":"2026-07-18T16:41:21.131808","CLASSIFICATION_TYPE":"U","MEAN_MOTION":13.29324968,"ECCENTRICITY":0.00008638,"INCLINATION":50.0089,"RA_OF_ASC_NODE":2.6085,"ARG_OF_PERICENTER":88.9921,"MEAN_ANOMALY":271.1051,"EPHEMERIS_TYPE":0,"NORAD_CAT_ID":67237,"ELEMENT_SET_NO":999,"REV_AT_EPOCH":2753,"BSTAR":-0.000008569374,"MEAN_MOTION_DOT":-0.00000128,"MEAN_MOTION_DDOT":0},{"OBJECT_NAME":"HULIANWANG DIGUI-130","OBJECT_ID":"2025-311C","EPOCH":"2026-07-19T02:54:54.504288","CLASSIFICATION_TYPE":"U","MEAN_MOTION":13.29323715,"ECCENTRICITY":0.00009585,"INCLINATION":50.0069,"RA_OF_ASC_NODE":1.4818,"ARG_OF_PERICENTER":86.7691,"MEAN_ANOMALY":273.3291,"EPHEMERIS_TYPE":0,"NORAD_CAT_ID":67238,"ELEMENT_SET_NO":999,"REV_AT_EPOCH":2758,"BSTAR":0.000043154262,"MEAN_MOTION_DOT":-0.00000104,"MEAN_MOTION_DDOT":0},{"OBJECT_NAME":"HULIANWANG DIGUI-131","OBJECT_ID":"2025-311D","EPOCH":"2026-07-19T03:06:57.360384","CLASSIFICATION_TYPE":"U","MEAN_MOTION":13.29323481,"ECCENTRICITY":0.00009652,"INCLINATION":50.0067,"RA_OF_ASC_NODE":1.5176,"ARG_OF_PERICENTER":87.8052,"MEAN_ANOMALY":272.2931,"EPHEMERIS_TYPE":0,"NORAD_CAT_ID":67239,"ELEMENT_SET_NO":999,"REV_AT_EPOCH":2758,"BSTAR":0.000017655421,"MEAN_MOTION_DOT":-0.00000116,"MEAN_MOTION_DDOT":0},{"OBJECT_NAME":"HULIANWANG DIGUI-132","OBJECT_ID":"2025-311E","EPOCH":"2026-07-18T21:06:02.582784","CLASSIFICATION_TYPE":"U","MEAN_MOTION":13.29324259,"ECCENTRICITY":0.00009166,"INCLINATION":50.0076,"RA_OF_ASC_NODE":2.2176,"ARG_OF_PERICENTER":85.1546,"MEAN_ANOMALY":274.9431,"EPHEMERIS_TYPE":0,"NORAD_CAT_ID":67240,"ELEMENT_SET_NO":999,"REV_AT_EPOCH":2755,"BSTAR":0.000030391977,"MEAN_MOTION_DOT":-0.0000011,"MEAN_MOTION_DDOT":0},{"OBJECT_NAME":"HULIANWANG DIGUI-133","OBJECT_ID":"2025-311F","EPOCH":"2026-07-18T20:42:01.473120","CLASSIFICATION_TYPE":"U","MEAN_MOTION":13.29324304,"ECCENTRICITY":0.00008971,"INCLINATION":50.0122,"RA_OF_ASC_NODE":2.2069,"ARG_OF_PERICENTER":87.2964,"MEAN_ANOMALY":272.8011,"EPHEMERIS_TYPE":0,"NORAD_CAT_ID":67241,"ELEMENT_SET_NO":999,"REV_AT_EPOCH":2755,"BSTAR":0.000036858278,"MEAN_MOTION_DOT":-0.00000107,"MEAN_MOTION_DDOT":0},{"OBJECT_NAME":"HULIANWANG DIGUI-134","OBJECT_ID":"2025-311G","EPOCH":"2026-07-18T20:54:00.438624","CLASSIFICATION_TYPE":"U","MEAN_MOTION":13.29324066,"ECCENTRICITY":0.00009166,"INCLINATION":50.005,"RA_OF_ASC_NODE":2.1324,"ARG_OF_PERICENTER":86.5707,"MEAN_ANOMALY":273.527,"EPHEMERIS_TYPE":0,"NORAD_CAT_ID":67242,"ELEMENT_SET_NO":999,"REV_AT_EPOCH":2755,"BSTAR":0.000048882366,"MEAN_MOTION_DOT":-0.00000101,"MEAN_MOTION_DDOT":0},{"OBJECT_NAME":"HULIANWANG DIGUI-135","OBJECT_ID":"2025-311H","EPOCH":"2026-07-19T04:31:06.356928","CLASSIFICATION_TYPE":"U","MEAN_MOTION":13.29323742,"ECCENTRICITY":0.00009248,"INCLINATION":50.0035,"RA_OF_ASC_NODE":1.1159,"ARG_OF_PERICENTER":86.084,"MEAN_ANOMALY":274.0138,"EPHEMERIS_TYPE":0,"NORAD_CAT_ID":67243,"ELEMENT_SET_NO":999,"REV_AT_EPOCH":2759,"BSTAR":0.000024693745,"MEAN_MOTION_DOT":-0.00000113,"MEAN_MOTION_DDOT":0},{"OBJECT_NAME":"HULIANWANG DIGUI-136","OBJECT_ID":"2025-311J","EPOCH":"2026-07-19T03:42:57.967776","CLASSIFICATION_TYPE":"U","MEAN_MOTION":13.29324637,"ECCENTRICITY":0.00008617,"INCLINATION":50.0111,"RA_OF_ASC_NODE":1.0649,"ARG_OF_PERICENTER":89.987,"MEAN_ANOMALY":270.1101,"EPHEMERIS_TYPE":0,"NORAD_CAT_ID":67244,"ELEMENT_SET_NO":999,"REV_AT_EPOCH":2759,"BSTAR":0.000007713433,"MEAN_MOTION_DOT":-0.0000012,"MEAN_MOTION_DDOT":0},{"OBJECT_NAME":"HULIANWANG DIGUI-137","OBJECT_ID":"2026-007A","EPOCH":"2026-07-18T17:32:59.316576","CLASSIFICATION_TYPE":"U","MEAN_MOTION":13.2932705,"ECCENTRICITY":0.00009084,"INCLINATION":50.0099,"RA_OF_ASC_NODE":332.7262,"ARG_OF_PERICENTER":124.5325,"MEAN_ANOMALY":235.5633,"EPHEMERIS_TYPE":0,"NORAD_CAT_ID":67435,"ELEMENT_SET_NO":999,"REV_AT_EPOCH":2498,"BSTAR":0.000051136004,"MEAN_MOTION_DOT":-0.000001,"MEAN_MOTION_DDOT":0},{"OBJECT_NAME":"HULIANWANG DIGUI-138","OBJECT_ID":"2026-007B","EPOCH":"2026-07-18T17:57:05.851296","CLASSIFICATION_TYPE":"U","MEAN_MOTION":13.29325395,"ECCENTRICITY":0.0000885,"INCLINATION":50.0078,"RA_OF_ASC_NODE":332.7817,"ARG_OF_PERICENTER":126.4159,"MEAN_ANOMALY":233.6795,"EPHEMERIS_TYPE":0,"NORAD_CAT_ID":67436,"ELEMENT_SET_NO":999,"REV_AT_EPOCH":2498,"BSTAR":0.000039403651,"MEAN_MOTION_DOT":-0.00000106,"MEAN_MOTION_DDOT":0},{"OBJECT_NAME":"HULIANWANG DIGUI-139","OBJECT_ID":"2026-007C","EPOCH":"2026-07-19T00:57:50.662080","CLASSIFICATION_TYPE":"U","MEAN_MOTION":13.29328342,"ECCENTRICITY":0.00008671,"INCLINATION":50.0048,"RA_OF_ASC_NODE":331.6139,"ARG_OF_PERICENTER":113.5254,"MEAN_ANOMALY":246.571,"EPHEMERIS_TYPE":0,"NORAD_CAT_ID":67437,"ELEMENT_SET_NO":999,"REV_AT_EPOCH":2502,"BSTAR":0.000037925462,"MEAN_MOTION_DOT":-0.00000106,"MEAN_MOTION_DDOT":0}]}
